NORAD_CAT_ID,OBJECT_NAME,OBJECT_TYPE,EPOCH,MEAN_MOTION,ECCENTRICITY,INCLINATION,RA_OF_ASC_NODE,ARG_OF_PERICENTER,MEAN_ANOMALY,BSTAR,MEAN_MOTION_DOT,MEAN_MOTION_DDOT,TLE_LINE0,TLE_LINE1,TLE_LINE2,SEMIMAJOR_AXIS,PERIOD,APOGEE,PERIGEE,DECAYED
49145.0,STARLINK-3119,PAYLOAD,2024-03-04 02:08:57,14.98337032,0.00026,69.9996,309.1508,261.5399,98.5465,0.00010838,1.201e-05,0.0,0 STARLINK-3119,1 49145U 21082R   24064.08955037  .00001201  00000-0  10838-3 0  9996,2 49145  69.9996 309.1508 0002600 261.5399  98.5465 14.98337032136773,6950.171,96.107,573.843,570.229,0.0
49145.0,STARLINK-3119,PAYLOAD,2024-03-04 10:09:37,14.98336575,0.0002519,69.9999,308.3094,270.5966,89.4904,4.7588e-05,4.75e-06,0.0,0 STARLINK-3119,1 49145U 21082R   24064.42335156  .00000475  00000-0  47588-4 0  9993,2 49145  69.9999 308.3094 0002519 270.5966  89.4904 14.98336575136820,6950.173,96.107,573.788,570.287,0.0
49145.0,STARLINK-3119,PAYLOAD,2024-03-04 22:58:41,14.9833218,0.0002478,70.0,306.9637,261.158,98.9299,0.00012025,1.342e-05,0.0,0 STARLINK-3119,1 49145U 21082R   24064.95742996  .00001342  00000-0  12025-3 0  9996,2 49145  70.0000 306.9637 0002478 261.1580  98.9299 14.98332180136904,6950.186,96.107,573.773,570.329,0.0
49145.0,STARLINK-3119,PAYLOAD,2024-03-05 02:10:58,14.98333003,0.0002663,69.9999,306.6273,265.8338,94.2516,9.603e-05,1.053e-05,0.0,0 STARLINK-3119,1 49145U 21082R   24065.09094997  .00001053  00000-0  96030-4 0  9991,2 49145  69.9999 306.6273 0002663 265.8338  94.2516 14.98333003136927,6950.184,96.107,573.899,570.198,0.0
49145.0,STARLINK-3119,PAYLOAD,2024-03-05 21:24:35,14.98329646,0.0002642,70.0002,304.6074,272.9424,87.1432,-5.9169e-05,-7.99e-06,0.0,0 STARLINK-3119,1 49145U 21082R   24065.89207611 -.00000799  00000-0 -59169-4 0  9998,2 49145  70.0002 304.6074 0002642 272.9424  87.1432 14.98329646137044,6950.194,96.107,573.895,570.223,0.0
49145.0,STARLINK-3119,PAYLOAD,2024-03-06 02:12:59,14.98329275,0.000273,70.0,304.1025,272.5467,87.5379,-7.257e-05,-9.59e-06,0.0,0 STARLINK-3119,1 49145U 21082R   24066.09235664 -.00000959  00000-0 -72570-4 0  9999,2 49145  70.0000 304.1025 0002730 272.5467  87.5379 14.98329275137079,6950.195,96.107,573.958,570.163,0.0
49145.0,STARLINK-3119,PAYLOAD,2024-03-06 19:50:28,14.98311729,0.0002843,69.9999,302.2515,270.5,89.5833,0.00022525,2.594e-05,0.0,0 STARLINK-3119,1 49145U 21082R   24066.82672043  .00002594  00000-0  22525-3 0  9995,2 49145  69.9999 302.2515 0002843 270.5000  89.5833 14.98311729137186,6950.249,96.108,574.09,570.138,0.0
49145.0,STARLINK-3119,PAYLOAD,2024-03-07 00:38:52,14.98326649,0.0002753,69.9999,301.7468,269.6308,90.4536,-6.2893e-05,-8.43e-06,0.0,0 STARLINK-3119,1 49145U 21082R   24067.02699811 -.00000843  00000-0 -62893-4 0  9990,2 49145  69.9999 301.7468 0002753 269.6308  90.4536 14.98326649137219,6950.203,96.107,573.982,570.155,0.0
49145.0,STARLINK-3119,PAYLOAD,2024-03-07 08:39:32,14.9833367,0.0002863,69.9996,300.9049,268.0475,92.0356,-0.00010989,-1.404e-05,0.0,0 STARLINK-3119,1 49145U 21082R   24067.36079480 -.00001404  00000-0 -10989-3 0  9993,2 49145  69.9996 300.9049 0002863 268.0475  92.0356 14.98333670137267,6950.182,96.107,574.036,570.057,0.0
49145.0,STARLINK-3119,PAYLOAD,2024-03-08 02:17:01,14.98306384,0.0002834,69.999,299.0522,266.8277,93.2558,0.00052647,6.19e-05,0.0,0 STARLINK-3119,1 49145U 21082R   24068.09515785  .00006190  00000-0  52647-3 0  9999,2 49145  69.9990 299.0522 0002834 266.8277  93.2558 14.98306384137370,6950.266,96.109,574.101,570.161,0.0
49145.0,STARLINK-3119,PAYLOAD,2024-03-08 08:41:33,14.98328485,0.0002951,69.9987,298.3769,269.8647,90.2174,-1.2521e-05,-2.42e-06,0.0,0 STARLINK-3119,1 49145U 21082R   24068.36219616 -.00000242  00000-0 -12521-4 0  9995,2 49145  69.9987 298.3769 0002951 269.8647  90.2174 14.98328485137417,6950.198,96.107,574.114,570.012,0.0
49145.0,STARLINK-3119,PAYLOAD,2024-03-08 21:30:38,14.98326766,0.0003043,69.9983,297.0306,268.4256,91.6554,8.5709e-05,9.3e-06,0.0,0 STARLINK-3119,1 49145U 21082R   24068.89627515  .00000930  00000-0  85709-4 0  9994,2 49145  69.9983 297.0306 0003043 268.4256  91.6554 14.98326766137495,6950.203,96.107,574.183,569.953,0.0
49145.0,STARLINK-3119,PAYLOAD,2024-03-09 08:43:34,14.98329982,0.0003063,69.9987,295.8524,268.3347,91.7461,2.2089e-05,1.71e-06,0.0,0 STARLINK-3119,1 49145U 21082R   24069.36359540  .00000171  00000-0  22089-4 0  9996,2 49145  69.9987 295.8524 0003063 268.3347  91.7461 14.98329982137568,6950.193,96.107,574.187,569.929,0.0
49145.0,STARLINK-3119,PAYLOAD,2024-03-09 21:32:38,14.98332042,0.0003141,69.9983,294.5064,270.0258,90.0541,3.2684e-05,2.97e-06,0.0,0 STARLINK-3119,1 49145U 21082R   24069.89767314  .00000297  00000-0  32684-4 0  9997,2 49145  69.9983 294.5064 0003141 270.0258  90.0541 14.98332042137648,6950.187,96.107,574.235,569.869,0.0
49145.0,STARLINK-3119,PAYLOAD,2024-03-10 08:45:35,14.98337477,0.0003271,69.9967,293.3279,265.9964,94.0821,-0.00012157,-1.544e-05,0.0,0 STARLINK-3119,1 49145U 21082R   24070.36499178 -.00001544  00000-0 -12157-3 0  9991,2 49145  69.9967 293.3279 0003271 265.9964  94.0821 14.98337477137716,6950.17,96.107,574.308,569.761,0.0
49145.0,STARLINK-3119,PAYLOAD,2024-03-10 21:34:40,14.9833011,0.0002889,69.9995,291.9814,270.2842,89.7986,1.2162e-05,5.2e-07,0.0,0 STARLINK-3119,1 49145U 21082R   24070.89907486  .00000052  00000-0  12162-4 0  9993,2 49145  69.9995 291.9814 0002889 270.2842  89.7986 14.98330110137792,6950.193,96.107,574.065,570.05,0.0
49145.0,STARLINK-3119,PAYLOAD,2024-03-11 00:46:56,14.98328522,0.0003024,69.9992,291.6451,270.6362,89.4451,-8.7484e-06,-1.97e-06,0.0,0 STARLINK-3119,1 49145U 21082R   24071.03259630 -.00000197  00000-0 -87484-5 0  9993,2 49145  69.9992 291.6451 0003024 270.6362  89.4451 14.98328522137817,6950.197,96.107,574.164,569.961,0.0
49145.0,STARLINK-3119,PAYLOAD,2024-03-11 13:36:00,14.98331086,0.0003049,69.999,290.2985,270.8545,89.2264,1.5628e-05,9.3e-07,0.0,0 STARLINK-3119,1 49145U 21082R   24071.56667388  .00000093  00000-0  15628-4 0  9997,2 49145  69.9990 290.2985 0003049 270.8545  89.2264 14.98331086137891,6950.19,96.107,574.174,569.935,0.0
49145.0,STARLINK-3119,PAYLOAD,2024-03-12 00:48:56,14.98347906,0.0003284,69.9988,289.1201,270.2251,89.8532,-0.00021854,-2.701e-05,0.0,0 STARLINK-3119,1 49145U 21082R   24072.03398962 -.00002701  00000-0 -21854-3 0  9996,2 49145  69.9988 289.1201 0003284 270.2251  89.8532 14.98347906137965,6950.138,96.106,574.285,569.72,0.0
49145.0,STARLINK-3119,PAYLOAD,2024-03-12 07:13:29,14.98323805,0.0002929,69.9987,288.4468,271.62,88.4624,0.00014528,1.641e-05,0.0,0 STARLINK-3119,1 49145U 21082R   24072.30103463  .00001641  00000-0  14528-3 0  9996,2 49145  69.9987 288.4468 0002929 271.6200  88.4624 14.98323805138000,6950.212,96.107,574.113,570.041,0.0
49145.0,STARLINK-3119,PAYLOAD,2024-03-13 00:50:57,14.98332771,0.000301,69.9986,286.5946,273.8536,86.2279,5.5418e-05,5.68e-06,0.0,0 STARLINK-3119,1 49145U 21082R   24073.03539018  .00000568  00000-0  55418-4 0  9997,2 49145  69.9986 286.5946 0003010 273.8536  86.2279 14.98332771138113,6950.184,96.107,574.141,569.957,0.0
49145.0,STARLINK-3119,PAYLOAD,2024-03-13 07:15:30,14.9833038,0.0003045,69.998,285.9213,271.7184,88.3626,1.6079e-05,9.9e-07,0.0,0 STARLINK-3119,1 49145U 21082R   24073.30243202  .00000099  00000-0  16079-4 0  9993,2 49145  69.9980 285.9213 0003045 271.7184  88.3626 14.98330380138158,6950.192,96.107,574.173,569.94,0.0
49145.0,STARLINK-3119,PAYLOAD,2024-03-13 21:40:42,14.98331419,0.0002762,70.0,284.4051,271.7351,88.3492,-6.2203e-06,-1.67e-06,0.0,0 STARLINK-3119,1 49145U 21082R   24073.90327229 -.00000167  00000-0 -62203-5 0  9990,2 49145  70.0000 284.4051 0002762 271.7351  88.3492 14.98331419138244,6950.189,96.107,573.973,570.134,0.0
49145.0,STARLINK-3119,PAYLOAD,2024-03-14 00:52:58,14.98330958,0.0002797,69.9995,284.0685,271.6856,88.3982,-1.1217e-05,-2.27e-06,0.0,0 STARLINK-3119,1 49145U 21082R   24074.03679249 -.00000227  00000-0 -11217-4 0  9992,2 49145  69.9995 284.0685 0002797 271.6856  88.3982 14.98330958138263,6950.19,96.107,573.999,570.111,0.0
49145.0,STARLINK-3119,PAYLOAD,2024-03-14 21:42:43,14.98332112,0.0002963,69.9989,281.8801,269.5795,90.5024,1.2031e-05,5.1e-07,0.0,0 STARLINK-3119,1 49145U 21082R   24074.90466937  .00000051  00000-0  12031-4 0  9994,2 49145  69.9989 281.8801 0002963 269.5795  90.5024 14.98332112138394,6950.186,96.107,574.111,569.992,0.0
49145.0,STARLINK-3119,PAYLOAD,2024-03-14 23:18:51,14.98332091,0.0002965,69.9989,281.7117,269.6299,90.452,1.1665e-05,4.6e-07,0.0,0 STARLINK-3119,1 49145U 21082R   24074.97142930  .00000046  00000-0  11665-4 0  9991,2 49145  69.9989 281.7117 0002965 269.6299  90.4520 14.98332091138403,6950.186,96.107,574.112,569.991,0.0
49145.0,STARLINK-3119,PAYLOAD,2024-03-15 23:20:52,14.98328873,0.0002957,69.9987,279.1865,269.0251,91.0569,7.8743e-06,1e-08,0.0,0 STARLINK-3119,1 49145U 21082R   24075.97283107  .00000001  00000-0  78743-5 0  9996,2 49145  69.9987 279.1865 0002957 269.0251  91.0569 14.98328873138554,6950.196,96.107,574.117,570.006,0.0
49145.0,STARLINK-3119,PAYLOAD,2024-03-16 13:46:05,14.98330881,0.0002944,69.9987,277.6719,270.0548,90.0274,5.6176e-06,-2.6e-07,0.0,0 STARLINK-3119,1 49145U 21082R   24076.57367007 -.00000026  00000-0  56176-5 0  9999,2 49145  69.9987 277.6719 0002944 270.0548  90.0274 14.98330881138646,6950.19,96.107,574.101,570.009,0.0
49145.0,STARLINK-3119,PAYLOAD,2024-03-16 21:46:45,14.98330228,0.0002972,69.9984,276.8311,271.3441,88.7378,-1.0037e-06,-1.05e-06,0.0,0 STARLINK-3119,1 49145U 21082R   24076.90747071 -.00000105  00000-0 -10037-5 0  9994,2 49145  69.9984 276.8311 0002972 271.3441  88.7378 14.98330228138698,6950.192,96.107,574.123,569.992,0.0
49145.0,STARLINK-3119,PAYLOAD,2024-03-16 23:22:53,14.98330476,0.000295,69.9985,276.6623,270.6307,89.4514,3.0995e-06,-5.6e-07,0.0,0 STARLINK-3119,1 49145U 21082R   24076.97423041 -.00000056  00000-0  30995-5 0  9998,2 49145  69.9985 276.6623 0002950 270.6307  89.4514 14.98330476138709,6950.191,96.107,574.107,570.006,0.0
